OBJECT_NAME,OBJECT_ID,EPOCH,MEAN_MOTION,ECCENTRICITY,INCLINATION,RA_OF_ASC_NODE,ARG_OF_PERICENTER,MEAN_ANOMALY,EPHEMERIS_TYPE,CLASSIFICATION_TYPE,NORAD_CAT_ID,ELEMENT_SET_NO,REV_AT_EPOCH,BSTAR,MEAN_MOTION_DOT,MEAN_MOTION_DDOT
STARLINK-37706,2026-110D,2026-06-14T04:00:01.998720,15.33438915,.0001628,97.2842,1.5791,91.0191,255.9670,0,U,69127,999,516,-.87823E-3,-.28317E-3,0
STARLINK-37723,2026-110E,2026-06-14T04:00:01.998720,15.33439040,.0001439,97.2844,1.5843,92.2726,269.7228,0,U,69128,999,516,-.85294E-3,-.27507E-3,0
STARLINK-37720,2026-110F,2026-06-14T02:58:32.517408,15.49205605,.0001606,97.2840,1.3338,92.8729,267.2706,0,U,69129,999,512,.69223E-3,.37761E-3,0
STARLINK-37533,2026-110G,2026-06-14T04:00:01.998720,15.33448915,.0001632,97.2843,1.6067,99.3764,307.6213,0,U,69130,999,517,-.13089E-2,-.42105E-3,0
STARLINK-37530,2026-110H,2026-06-14T04:00:01.998720,15.33986679,.0002028,97.2839,1.6128,101.7375,319.9933,0,U,69131,999,517,-.27533E-1,-.835777E-2,0
STARLINK-37660,2026-110J,2026-06-14T02:44:29.835744,15.49208785,.0000628,97.2833,1.5002,43.6057,316.5244,0,U,69132,999,513,.52298E-3,.28475E-3,0
STARLINK-37633,2026-110K,2026-06-14T02:36:29.456064,15.49236250,.000088,97.2831,1.5080,74.4680,285.6668,0,U,69133,999,513,.10594E-2,.58049E-3,0
STARLINK-37361,2026-110L,2026-06-14T04:00:01.998720,15.35965878,.0001881,97.2842,1.6337,83.1350,22.4265,0,U,69134,999,517,-.11016E+0,-.340983E-1,0
STARLINK-37372,2026-110M,2026-06-14T04:04:32.745216,15.49219182,.0001304,97.2831,1.5788,83.5904,276.5496,0,U,69135,999,514,.60748E-3,.33122E-3,0
STARLINK-37531,2026-110N,2026-06-14T04:00:01.998720,15.41242158,.0001731,97.2846,1.6384,90.2814,26.9691,0,U,69136,999,517,-.67945E-1,-.2496352E-1,0
STARLINK-37662,2026-110P,2026-06-14T04:04:03.807264,15.49206832,.0001417,97.2831,1.5793,92.9826,267.1587,0,U,69137,999,514,.57954E-3,.31575E-3,0
STARLINK-37658,2026-110Q,2026-06-14T01:43:41.370240,15.49211051,.0002008,97.2829,1.4058,123.4071,236.7373,0,U,69138,999,512,.12021E-2,.6589E-3,0
STARLINK-37659,2026-110R,2026-06-14T01:54:46.529280,15.49197711,.000251,97.2838,1.3958,59.9810,300.1690,0,U,69139,999,512,.13285E-2,.7286E-3,0
STARLINK-37653,2026-110S,2026-06-14T01:58:19.043040,15.49226400,.0000698,97.2841,1.3933,89.4529,270.6802,0,U,69140,999,512,.14019E-2,.77003E-3,0
STARLINK-37654,2026-110T,2026-06-14T02:28:37.509024,15.49140294,.0001847,97.2830,1.5162,76.8445,283.3012,0,U,69141,999,513,.52281E-3,.28399E-3,0
STARLINK-37655,2026-110U,2026-06-14T04:00:01.998720,15.48553132,.0002079,97.2840,1.6257,75.5496,29.5973,0,U,69142,999,517,-.60636E-1,-.2815399E-1,0
STARLINK-37636,2026-110V,2026-06-14T04:00:01.998720,15.38708545,.0002296,97.2836,1.6917,87.6033,145.3908,0,U,69143,999,517,-.729E-1,-.2467047E-1,0
STARLINK-37638,2026-110W,2026-06-14T04:00:01.998720,15.38824738,.0002217,97.2834,1.6982,94.8498,152.8211,0,U,69144,999,517,-.72247E-1,-.2455661E-1,0
STARLINK-37657,2026-110X,2026-06-14T04:01:57.296064,15.49187638,.0001891,97.2830,1.5809,83.4639,276.6827,0,U,69145,999,514,.19485E-2,.107335E-2,0
STARLINK-37639,2026-110Y,2026-06-14T04:00:01.998720,15.39807952,.0002392,97.2837,1.7101,97.2340,176.6767,0,U,69146,999,522,-.71486E-1,-.2503736E-1,0
STARLINK-37661,2026-110Z,2026-06-14T02:59:47.579136,15.49206146,.0001549,97.2838,1.4869,87.9835,272.1593,0,U,69147,999,513,.41181E-3,.22384E-3,0
STARLINK-37395,2026-111A,2026-06-14T04:00:01.998720,15.69626846,.0000903,53.1591,166.9070,93.4605,179.0751,0,U,69148,999,506,-.2388E-1,-.2517769E-1,0
STARLINK-37346,2026-111B,2026-06-14T04:00:01.998720,15.54102615,.0001012,53.1593,167.2748,79.4004,11.9640,0,U,69149,999,506,-.43799E-1,-.2560832E-1,0
STARLINK-37332,2026-111C,2026-06-14T04:00:01.998720,15.49284547,.0001308,53.1587,167.5854,89.0131,208.9626,0,U,69150,999,506,.42891E-3,.23457E-3,0
STARLINK-37297,2026-111D,2026-06-14T04:00:01.998720,15.71439504,.0000899,53.1593,166.8570,91.5419,205.2989,0,U,69151,999,506,-.23142E-1,-.2618633E-1,0
STARLINK-37317,2026-111E,2026-06-14T04:00:01.998720,15.75701893,.0000806,53.1588,166.7788,91.0760,244.2115,0,U,69152,999,506,-.18531E-1,-.2479016E-1,0
STARLINK-37374,2026-111F,2026-06-14T04:00:01.998720,15.49320874,.0000906,53.1593,167.7620,109.8018,100.4870,0,U,69153,999,506,.68999E-3,.3813E-3,0
STARLINK-37235,2026-111G,2026-06-14T04:00:01.998720,15.49286538,.0001053,53.1586,168.0046,95.3659,355.6106,0,U,69154,999,506,.26576E-3,.14348E-3,0
STARLINK-37329,2026-111H,2026-06-14T04:00:01.998720,15.75823672,.0000793,53.1589,166.7827,91.7510,241.6854,0,U,69155,999,506,-.19085E-1,-.2614498E-1,0
STARLINK-37345,2026-111J,2026-06-14T04:00:01.998720,15.77469368,.0000744,53.1585,166.7568,97.5762,248.6543,0,U,69156,999,506,-.17761E-1,-.2557273E-1,0
