STARLINK-37706          
1 69127U 26110D   26165.16668980 -.00028317  00000+0 -87823-3 0  9992
2 69127  97.2842   1.5791 0001628  91.0191 255.9670 15.33438915  5168
STARLINK-37723          
1 69128U 26110E   26165.16668980 -.00027507  00000+0 -85294-3 0  9993
2 69128  97.2844   1.5843 0001439  92.2726 269.7228 15.33439040  5168
STARLINK-37720          
1 69129U 26110F   26165.12398747  .00037761  00000+0  69223-3 0  9996
2 69129  97.2840   1.3338 0001606  92.8729 267.2706 15.49205605  5122
STARLINK-37533          
1 69130U 26110G   26165.16668980 -.00042105  00000+0 -13089-2 0  9999
2 69130  97.2843   1.6067 0001632  99.3764 307.6213 15.33448915  5172
STARLINK-37530          
1 69131U 26110H   26165.16668980 -.00835777  00000+0 -27533-1 0  9993
2 69131  97.2839   1.6128 0002028 101.7375 319.9933 15.33986679  5171
STARLINK-37660          
1 69132U 26110J   26165.11423421  .00028475  00000+0  52298-3 0  9993
2 69132  97.2833   1.5002 0000628  43.6057 316.5244 15.49208785  5137
STARLINK-37633          
1 69133U 26110K   26165.10867426  .00058049  00000+0  10594-2 0  9992
2 69133  97.2831   1.5080 0000880  74.4680 285.6668 15.49236250  5130
STARLINK-37361          
1 69134U 26110L   26165.16668980 -.03409830  00000+0 -11016+0 0  9993
2 69134  97.2842   1.6337 0001881  83.1350  22.4265 15.35965878  5176
STARLINK-37372          
1 69135U 26110M   26165.16982344  .00033122  00000+0  60748-3 0  9999
2 69135  97.2831   1.5788 0001304  83.5904 276.5496 15.49219182  5143
STARLINK-37531          
1 69136U 26110N   26165.16668980 -.02496352  00000+0 -67945-1 0  9993
2 69136  97.2846   1.6384 0001731  90.2814  26.9691 15.41242158  5170
STARLINK-37662          
1 69137U 26110P   26165.16948851  .00031575  00000+0  57954-3 0  9991
2 69137  97.2831   1.5793 0001417  92.9826 267.1587 15.49206832  5148
STARLINK-37658          
1 69138U 26110Q   26165.07200660  .00065890  00000+0  12021-2 0  9993
2 69138  97.2829   1.4058 0002008 123.4071 236.7373 15.49211051  5120
STARLINK-37659          
1 69139U 26110R   26165.07970520  .00072860  00000+0  13285-2 0  9991
2 69139  97.2838   1.3958 0002510  59.9810 300.1690 15.49197711  5125
STARLINK-37653          
1 69140U 26110S   26165.08216485  .00077003  00000+0  14019-2 0  9997
2 69140  97.2841   1.3933 0000698  89.4529 270.6802 15.49226400  5128
STARLINK-37654          
1 69141U 26110T   26165.10321191  .00028399  00000+0  52281-3 0  9990
2 69141  97.2830   1.5162 0001847  76.8445 283.3012 15.49140294  5138
STARLINK-37655          
1 69142U 26110U   26165.16668980 -.02815399  00000+0 -60636-1 0  9996
2 69142  97.2840   1.6257 0002079  75.5496  29.5973 15.48553132  5174
STARLINK-37636          
1 69143U 26110V   26165.16668980 -.02467047  00000+0 -72900-1 0  9997
2 69143  97.2836   1.6917 0002296  87.6033 145.3908 15.38708545  5179
STARLINK-37638          
1 69144U 26110W   26165.16668980 -.02455661  00000+0 -72247-1 0  9991
2 69144  97.2834   1.6982 0002217  94.8498 152.8211 15.38824738  5171
STARLINK-37657          
1 69145U 26110X   26165.16802426  .00107335  00000+0  19485-2 0  9991
2 69145  97.2830   1.5809 0001891  83.4639 276.6827 15.49187638  5141
STARLINK-37639          
1 69146U 26110Y   26165.16668980 -.02503736  00000+0 -71486-1 0  9994
2 69146  97.2837   1.7101 0002392  97.2340 176.6767 15.39807952  5223
STARLINK-37661          
1 69147U 26110Z   26165.12485624  .00022384  00000+0  41181-3 0  9995
2 69147  97.2838   1.4869 0001549  87.9835 272.1593 15.49206146  5139
STARLINK-37395          
1 69148U 26111A   26165.16668980 -.02517769  00000+0 -23880-1 0  9993
2 69148  53.1591 166.9070 0000903  93.4605 179.0751 15.69626846  5066
STARLINK-37346          
1 69149U 26111B   26165.16668980 -.02560832  00000+0 -43799-1 0  9994
2 69149  53.1593 167.2748 0001012  79.4004  11.9640 15.54102615  5062
STARLINK-37332          
1 69150U 26111C   26165.16668980  .00023457  00000+0  42891-3 0  9993
2 69150  53.1587 167.5854 0001308  89.0131 208.9626 15.49284547  5065
STARLINK-37297          
1 69151U 26111D   26165.16668980 -.02618633  00000+0 -23142-1 0  9990
2 69151  53.1593 166.8570 0000899  91.5419 205.2989 15.71439504  5063
STARLINK-37317          
1 69152U 26111E   26165.16668980 -.02479016  00000+0 -18531-1 0  9997
2 69152  53.1588 166.7788 0000806  91.0760 244.2115 15.75701893  5061
STARLINK-37374          
1 69153U 26111F   26165.16668980  .00038130  00000+0  68999-3 0  9997
2 69153  53.1593 167.7620 0000906 109.8018 100.4870 15.49320874  5067
STARLINK-37235          
1 69154U 26111G   26165.16668980  .00014348  00000+0  26576-3 0  9998
2 69154  53.1586 168.0046 0001053  95.3659 355.6106 15.49286538  5064
STARLINK-37329          
1 69155U 26111H   26165.16668980 -.02614498  00000+0 -19085-1 0  9990
2 69155  53.1589 166.7827 0000793  91.7510 241.6854 15.75823672  5065
STARLINK-37345          
1 69156U 26111J   26165.16668980 -.02557273  00000+0 -17761-1 0  9997
2 69156  53.1585 166.7568 0000744  97.5762 248.6543 15.77469368  5065
